{"type":"FeatureCollection","features":[{"type":"Feature","geometry":{"type":"LineString","coordinates":[[-104.9422646,39.7366303],[-104.9420929,39.730574],[-104.9469638,39.7304338],[-104.9467278,39.7209858],[-104.9417496,39.7210683],[-104.9417281,39.7145983]]},"properties":{"name":"alleyway"}},{"type":"Feature","geometry":{"type":"LineString","coordinates":[[-104.94214,39.73677],[-104.93995,39.73652],[-104.93839,39.73649],[-104.93729,39.73649],[-104.93616,39.7365],[-104.935,39.73648],[-104.93385,39.7365],[-104.9327,39.73651],[-104.93155,39.7365],[-104.93039,39.73651],[-104.92924,39.73651],[-104.92808,39.73651],[-104.92692,39.73651],[-104.92578,39.7365],[-104.92459,39.7365],[-104.92345,39.7365],[-104.92275,39.73654],[-104.92223,39.73674],[-104.9221,39.73676],[-104.92168,39.73677],[-104.92057,39.73676],[-104.91947,39.73676],[-104.91836,39.73676],[-104.9181,39.73677],[-104.91726,39.73677],[-104.91615,39.73676],[-104.91615,39.73741],[-104.91617,39.73834],[-104.91578,39.73834],[-104.91505,39.73834],[-104.91447,39.73835],[-104.91343,39.73835],[-104.91315,39.73836],[-104.91282,39.7384],[-104.91243,39.73864],[-104.91209,39.73871],[-104.91196,39.73871],[-104.91171,39.73871],[-104.91164,39.7387],[-104.91165,39.73726],[-104.91164,39.73562],[-104.91244,39.73435],[-104.91163,39.73418],[-104.91165,39.73289],[-104.91165,39.73168],[-104.91165,39.73049],[-104.91164,39.72928],[-104.9105,39.72928],[-104.90815,39.72928],[-104.90581,39.72929],[-104.90268,39.72928],[-104.90166,39.72928],[-104.90107,39.72937],[-104.90067,39.7295],[-104.90029,39.72963],[-104.89973,39.72977],[-104.8996,39.7298],[-104.89936,39.72983],[-104.89905,39.72986],[-104.89884,39.72987],[-104.89848,39.72985],[-104.8982,39.72983],[-104.89788,39.72978],[-104.89728,39.72963],[-104.89675,39.72942],[-104.89647,39.72929],[-104.89623,39.72914],[-104.89533,39.72861],[-104.895,39.72843],[-104.89447,39.72826],[-104.89427,39.72826],[-104.89386,39.72824],[-104.89262,39.72834],[-104.89234,39.72837],[-104.89215,39.72715],[-104.89208,39.72633],[-104.89183,39.72565],[-104.8919,39.72546],[-104.89182,39.72449],[-104.89162,39.72286],[-104.89142,39.72157],[-104.89126,39.7206],[-104.89109,39.72027],[-104.89098,39.72011],[-104.89095,39.71997],[-104.89099,39.7198],[-104.89107,39.71973],[-104.8912,39.71965],[-104.89197,39.71923],[-104.89235,39.719],[-104.89326,39.71848],[-104.89436,39.71785],[-104.89494,39.71754],[-104.89529,39.71738],[-104.89547,39.71734],[-104.89558,39.71734],[-104.89552,39.71724],[-104.89549,39.71716],[-104.89553,39.71708],[-104.89558,39.71702]]},"properties":{"name":"13th_14th_ave"}},{"type":"Feature","geometry":{"type":"LineString","coordinates":[[-104.8856727,39.7064686],[-104.8837066,39.7068235],[-104.8815393,39.7073682],[-104.8816252,39.7076324],[-104.8837495,39.7071371],[-104.8852086,39.7072857],[-104.8851442,39.7081276],[-104.8863888,39.7087219],[-104.886539,39.7099104],[-104.8882127,39.7100259],[-104.8891139,39.7108513],[-104.889586,39.7137399],[-104.8897576,39.7148293],[-104.8935127,39.7149944],[-104.8930836,39.7142846],[-104.8935127,39.7141691],[-104.8956477,39.7169731]]},"properties":{"name":"amli_firehouse"}},{"type":"Feature","geometry":{"type":"LineString","coordinates":[[-104.88573,39.70648],[-104.8864,39.70631],[-104.88663,39.70625],[-104.88801,39.70592],[-104.88872,39.70577],[-104.88905,39.70575],[-104.88969,39.70574],[-104.88995,39.70577],[-104.89031,39.7059],[-104.89092,39.70613],[-104.89128,39.70634],[-104.89164,39.7066],[-104.8919,39.70684],[-104.89213,39.70712],[-104.89234,39.70746],[-104.8925,39.70796],[-104.89259,39.70857],[-104.89274,39.70966],[-104.89282,39.71036],[-104.89285,39.71059],[-104.89282,39.71132],[-104.89352,39.71132],[-104.89424,39.71132],[-104.8961,39.71133],[-104.89937,39.71134],[-104.9015,39.71134],[-104.90267,39.71135],[-104.90355,39.71136],[-104.90353,39.71089],[-104.90353,39.70982],[-104.90353,39.70944],[-104.90349,39.70909],[-104.9035,39.70751],[-104.9035,39.70661],[-104.9035,39.70387],[-104.90351,39.70296],[-104.9035,39.70105],[-104.90351,39.70015],[-104.90352,39.6997],[-104.90353,39.69882],[-104.90355,39.69855],[-104.90395,39.69874],[-104.90526,39.69923],[-104.90683,39.69979],[-104.90733,39.69991],[-104.90816,39.7002],[-104.90823,39.70022],[-104.90822,39.69966],[-104.90823,39.699],[-104.90823,39.69827],[-104.90822,39.69748],[-104.90821,39.6969],[-104.90819,39.6956],[-104.9082,39.69446],[-104.9082,39.69298],[-104.9082,39.6918],[-104.90818,39.68995],[-104.90822,39.68944]]},"properties":{"name":"fairmount_cherry_creek"}},{"type":"Feature","geometry":{"type":"LineString","coordinates":[[-104.9177063,39.6987672],[-104.9192727,39.6987672],[-104.9192941,39.6972482],[-104.9216223,39.69724]]},"properties":{"name":"mcmeen_school"}},{"type":"Feature","geometry":{"type":"LineString","coordinates":[[-104.9177063,39.6987672],[-104.9178454,39.6945794],[-104.9080553,39.6888747]]},"properties":{"name":"place_bridge"}},{"type":"Feature","geometry":{"type":"LineString","coordinates":[[-104.93701,39.70615],[-104.9369,39.70613],[-104.93566,39.70566],[-104.93487,39.70533],[-104.93413,39.70507],[-104.93383,39.70499],[-104.93343,39.70492],[-104.933,39.70478],[-104.9326,39.70464],[-104.93163,39.70428],[-104.93114,39.7041],[-104.93035,39.70381],[-104.93003,39.70373],[-104.92984,39.70372],[-104.92944,39.7038],[-104.92907,39.70398],[-104.92849,39.70408],[-104.92745,39.70407],[-104.92697,39.70408],[-104.92697,39.70391],[-104.9268,39.70385],[-104.92657,39.70387],[-104.92639,39.70391],[-104.92616,39.70382],[-104.92597,39.70374],[-104.92581,39.70373],[-104.92581,39.702],[-104.92583,39.7019],[-104.9259,39.70179],[-104.92614,39.70163],[-104.92652,39.7018],[-104.9268,39.70194],[-104.92709,39.70181],[-104.92724,39.70166],[-104.92734,39.70161],[-104.92675,39.70089],[-104.92583,39.69968],[-104.92456,39.6982],[-104.92264,39.69694],[-104.92207,39.69682],[-104.92172,39.697],[-104.92165,39.69723]]},"properties":{"name":"cherry_creek_bike"}},{"type":"Feature","geometry":{"type":"LineString","coordinates":[[-104.9363797,39.7074013],[-104.9377209,39.7073889],[-104.9377209,39.7072114],[-104.9383968,39.7072155],[-104.9383968,39.7066419],[-104.9382627,39.7065511],[-104.9381876,39.7064851],[-104.9376726,39.706287],[-104.9370168,39.7061519]]},"properties":{"name":"staybridge"}},{"type":"Feature","geometry":{"type":"LineString","coordinates":[[-104.93643,39.7074],[-104.93637,39.7074],[-104.93637,39.70772],[-104.93636,39.70911],[-104.93629,39.70928],[-104.93622,39.70933],[-104.93568,39.70957],[-104.93553,39.70969],[-104.93543,39.70986],[-104.93541,39.70989]]},"properties":{"name":"virginia_to_cc"}},{"type":"Feature","geometry":{"type":"LineString","coordinates":[[-104.9354249,39.709898],[-104.9355751,39.7099186],[-104.9356288,39.7098444],[-104.9361974,39.7102323],[-104.936251,39.7103148],[-104.9362242,39.7104139],[-104.9362189,39.7105665],[-104.9361438,39.7106037],[-104.9360526,39.7105913],[-104.9358112,39.710418],[-104.9356931,39.7105542]]},"properties":{"name":"stay_america"}},{"type":"Feature","geometry":{"type":"LineString","coordinates":[[-104.93567,39.71059],[-104.9358,39.71067],[-104.93595,39.71078],[-104.93614,39.71095],[-104.93635,39.71115],[-104.93648,39.71126],[-104.93665,39.71142],[-104.93694,39.71168],[-104.9374,39.7121],[-104.93742,39.71212],[-104.93744,39.71214],[-104.93847,39.71305],[-104.93887,39.71339],[-104.93947,39.7139],[-104.93987,39.71427],[-104.94027,39.71465],[-104.94047,39.71465],[-104.94061,39.71465],[-104.9408,39.71466],[-104.94135,39.71465],[-104.94183,39.71465]]},"properties":{"name":"leetsdale_bayaud"}}]}