{"type":"FeatureCollection","features":[{"type":"Feature","geometry":{"type":"LineString","coordinates":[[-104.8858094,39.631432,0],[-104.8849511,39.6316303,0],[-104.8830629,39.6315973,0],[-104.8815179,39.6315642,0],[-104.8814321,39.6321922,0],[-104.8810458,39.631432,0],[-104.87993,39.6315642,0],[-104.8775268,39.6321261,0],[-104.8764539,39.6314651,0],[-104.8757136,39.6316139,0],[-104.8755634,39.6268873,0],[-104.8710466,39.6268707,0],[-104.8715883,39.624338,0],[-104.8704028,39.6240611,0],[-104.8685575,39.623995,0],[-104.8689169,39.6220736,0],[-104.8690893,39.6220534,0],[-104.8692455,39.621992,0],[-104.8695473,39.6219724,0],[-104.8697873,39.6219341,0],[-104.8699422,39.6218593,0],[-104.8700435,39.6217513,0],[-104.8695888,39.6214362,0],[-104.8694366,39.6212291,0],[-104.869338,39.621055,0],[-104.869326,39.6205995,0],[-104.8693515,39.6201522,0],[-104.8693675,39.6194084,0],[-104.8691154,39.6193671,0],[-104.8691583,39.6186728,0],[-104.866798,39.6185737,0]]},"properties":{"name":"Line 1","styleUrl":"#line-000000-1200-nodesc","stroke-opacity":1,"stroke":"#000000","stroke-width":1.2}},{"type":"Feature","geometry":{"type":"LineString","coordinates":[[-104.8667336,39.6185159,0],[-104.8666906,39.6169952,0],[-104.8759174,39.617177,0],[-104.8758316,39.6182018,0],[-104.8763037,39.6180035,0],[-104.8759711,39.6204249,0],[-104.8759818,39.6206316,0]]},"properties":{"name":"Line 2","styleUrl":"#line-000000-1200-nodesc","stroke-opacity":1,"stroke":"#000000","stroke-width":1.2}},{"type":"Feature","geometry":{"type":"LineString","coordinates":[[-104.8759711,39.6204249,0],[-104.8833418,39.6204002,0]]},"properties":{"name":"Line 3","styleUrl":"#line-000000-1200-nodesc","stroke-opacity":1,"stroke":"#000000","stroke-width":1.2}},{"type":"Feature","geometry":{"type":"LineString","coordinates":[[-104.8864961,39.6204993,0],[-104.8877299,39.6200448,0],[-104.8873007,39.6211191,0],[-104.8883468,39.6215447,0]]},"properties":{"name":"Line 7","styleUrl":"#line-000000-1200-nodesc","stroke-opacity":1,"stroke":"#000000","stroke-width":1.2}},{"type":"Feature","geometry":{"type":"LineString","coordinates":[[-104.8883468,39.6215447,0],[-104.888202,39.6212266,0],[-104.8884916,39.6211067,0],[-104.8896235,39.6211233,0],[-104.8896182,39.6216233,0],[-104.8900151,39.6216356,0],[-104.8901761,39.6214208,0],[-104.8910826,39.6214538,0],[-104.8910558,39.6219951,0],[-104.8915815,39.6222141,0]]},"properties":{"name":"Line 8","styleUrl":"#line-000000-1200-nodesc","stroke-opacity":1,"stroke":"#000000","stroke-width":1.2}},{"type":"Feature","geometry":{"type":"LineString","coordinates":[[-104.8915815,39.6222141,0],[-104.8920429,39.621648,0],[-104.8922521,39.6217059,0],[-104.8926276,39.6213795,0],[-104.8927456,39.6214497,0],[-104.8929709,39.6214043,0],[-104.8932552,39.6214497,0],[-104.8935127,39.6213877,0],[-104.8937327,39.6214745,0],[-104.8945212,39.6214538,0]]},"properties":{"name":"Line 9","styleUrl":"#line-000000-1200-nodesc","stroke-opacity":1,"stroke":"#000000","stroke-width":1.2}},{"type":"Feature","geometry":{"type":"LineString","coordinates":[[-104.8945212,39.6214538,0],[-104.8948056,39.6220075,0],[-104.8947841,39.6226769,0],[-104.8948109,39.6261932,0]]},"properties":{"name":"Line 10","styleUrl":"#line-000000-1200-nodesc","stroke-opacity":1,"stroke":"#000000","stroke-width":1.2}},{"type":"Feature","geometry":{"type":"LineString","coordinates":[[-104.8948109,39.6261932,0],[-104.8948431,39.6282756,0],[-104.8951757,39.6290275,0],[-104.8952937,39.6292754,0],[-104.8942852,39.6296225,0],[-104.8927188,39.6309859,0],[-104.892354,39.6312833,0],[-104.8918712,39.6312586,0]]},"properties":{"name":"Line 15","styleUrl":"#line-000000-1200-nodesc","stroke-opacity":1,"stroke":"#000000","stroke-width":1.2}},{"type":"Feature","geometry":{"type":"LineString","coordinates":[[-104.8918712,39.6312586,0],[-104.8918819,39.6316221,0],[-104.8910344,39.63187,0],[-104.8908734,39.63168,0],[-104.8902297,39.6319279,0],[-104.8903692,39.6321592,0],[-104.8891997,39.6322253,0],[-104.887805,39.6322171,0],[-104.8871827,39.6315891,0],[-104.8865068,39.631556,0],[-104.885745,39.6313742,0]]},"properties":{"name":"Line 16","styleUrl":"#line-000000-1200-nodesc","stroke-opacity":1,"stroke":"#000000","stroke-width":1.2}},{"type":"Feature","geometry":{"type":"LineString","coordinates":[[-104.8954546,39.6265216,0],[-104.8953554,39.6264411,0],[-104.8948082,39.6264783,0]]},"properties":{"name":"Line 20","styleUrl":"#line-000000-1200-nodesc","stroke-opacity":1,"stroke":"#000000","stroke-width":1.2}},{"type":"Feature","geometry":{"type":"LineString","coordinates":[[-104.8948136,39.6262138,0],[-104.8949531,39.6262056,0],[-104.8950684,39.6262841,0],[-104.895393,39.626251,0],[-104.8964202,39.626189,0]]},"properties":{"name":"Line 21","styleUrl":"#line-000000-1200-nodesc","stroke-opacity":1,"stroke":"#000000","stroke-width":1.2}},{"type":"Feature","geometry":{"type":"LineString","coordinates":[[-104.8954546,39.6265216,0],[-104.8955593,39.6265919,0]]},"properties":{"name":"Line 22","styleUrl":"#line-000000-1200-nodesc","stroke-opacity":1,"stroke":"#000000","stroke-width":1.2}},{"type":"Feature","geometry":{"type":"LineString","coordinates":[[-104.8955593,39.6265919,0],[-104.8955163,39.6266291,0],[-104.8958489,39.6269699,0],[-104.8965919,39.6265485,0],[-104.8965946,39.626187,0],[-104.8964202,39.626189,0]]},"properties":{"name":"Line 23","styleUrl":"#line-000000-1200-nodesc","stroke-opacity":1,"stroke":"#000000","stroke-width":1.2}},{"type":"Feature","geometry":{"type":"LineString","coordinates":[[-104.8833418,39.6204002,0],[-104.8837817,39.6205241,0],[-104.8837817,39.6207472,0],[-104.885155,39.6206729,0],[-104.8856163,39.6209373,0],[-104.8855519,39.62102,0],[-104.8858094,39.6211935,0],[-104.8861742,39.6207307,0],[-104.8864961,39.6204993,0]]},"properties":{"name":"Line 14","styleUrl":"#line-000000-1200-nodesc","stroke-opacity":1,"stroke":"#000000","stroke-width":1.2}},{"type":"Feature","geometry":{"type":"LineString","coordinates":[[-104.88549,39.63135,0],[-104.88568,39.63135,0],[-104.88571,39.63135,0],[-104.88596,39.63135,0],[-104.88617,39.63135,0],[-104.88625,39.63136,0],[-104.88647,39.63138,0],[-104.88662,39.63141,0],[-104.88674,39.63145,0]]},"properties":{"name":"Directions from 8842-8898 E Union Ave, Denver, CO 80237, USA to 8640 E Temple Dr, Denver, CO 80237, USA","styleUrl":"#line-1267FF-5000-nodesc","stroke-opacity":1,"stroke":"#1267ff","stroke-width":5}},{"type":"Feature","geometry":{"type":"Point","coordinates":[-104.8854856,39.6313462,0]},"properties":{"name":"8842-8898 E Union Ave, Denver, CO 80237, USA","styleUrl":"#icon-1899-DB4436-nodesc","icon-opacity":1,"icon-color":"#db4436","icon-scale":1,"icon-offset":[32,64],"icon-offset-units":["pixels","insetPixels"],"icon":"https://www.gstatic.com/mapspro/images/stock/503-wht-blank_maps.png"}},{"type":"Feature","geometry":{"type":"Point","coordinates":[-104.886738,39.6314458,0]},"properties":{"name":"8640 E Temple Dr, Denver, CO 80237, USA","styleUrl":"#icon-1899-DB4436-nodesc","icon-opacity":1,"icon-color":"#db4436","icon-scale":1,"icon-offset":[32,64],"icon-offset-units":["pixels","insetPixels"],"icon":"https://www.gstatic.com/mapspro/images/stock/503-wht-blank_maps.png"}},{"type":"Feature","geometry":null,"properties":{"name":"Directions from 5252 S Yosemite St, Greenwood Village, CO 80111, USA to 5252 S Yosemite St, Greenwood Village, CO 80111, USA","styleUrl":"#line-1267FF-5000-nodesc","stroke-opacity":1,"stroke":"#1267ff","stroke-width":5}},{"type":"Feature","geometry":{"type":"Point","coordinates":[-104.8853748,39.6215174,0]},"properties":{"name":"5252 S Yosemite St, Greenwood Village, CO 80111, USA","styleUrl":"#icon-1899-DB4436-nodesc","icon-opacity":1,"icon-color":"#db4436","icon-scale":1,"icon-offset":[32,64],"icon-offset-units":["pixels","insetPixels"],"icon":"https://www.gstatic.com/mapspro/images/stock/503-wht-blank_maps.png"}},{"type":"Feature","geometry":{"type":"Point","coordinates":[-104.8853748,39.6215174,0]},"properties":{"name":"5252 S Yosemite St, Greenwood Village, CO 80111, USA","styleUrl":"#icon-1899-DB4436-nodesc","icon-opacity":1,"icon-color":"#db4436","icon-scale":1,"icon-offset":[32,64],"icon-offset-units":["pixels","insetPixels"],"icon":"https://www.gstatic.com/mapspro/images/stock/503-wht-blank_maps.png"}}]}